OBJECT_NAME,OBJECT_ID,EPOCH,MEAN_MOTION,ECCENTRICITY,INCLINATION,RA_OF_ASC_NODE,ARG_OF_PERICENTER,MEAN_ANOMALY,EPHEMERIS_TYPE,CLASSIFICATION_TYPE,NORAD_CAT_ID,ELEMENT_SET_NO,REV_AT_EPOCH,BSTAR,MEAN_MOTION_DOT,MEAN_MOTION_DDOT
IONOSFERA-M 2,2024-199B,2026-07-22T06:00:20.824128,14.22763429,.0000783,98.7125,75.9550,130.9117,229.2129,0,U,61736,999,13581,.27618868E-4,.18E-6,0
PRSC-EO1,2025-012A,2026-07-22T06:25:46.706016,15.17682647,.0007222,97.4209,275.0386,126.8070,233.3827,0,U,62725,999,8351,.36848519E-3,.7364E-4,0
BIOMASS,2025-090A,2026-07-22T01:57:56.209248,14.67536612,.00014651,98.0754,29.8887,88.6377,271.4995,0,U,63772,999,6580,.11542485E-3,.607E-5,0
GOSAT-GW (IBUKI GW),2025-141A,2026-07-22T07:17:10.993344,14.67557222,.00014773,98.0565,140.0501,83.1298,277.0074,0,U,64694,999,5699,.12438831E-4,.23E-6,0
IONOSFERA-M 3,2025-155A,2026-07-22T07:11:03.433056,14.21491785,.00024459,98.6046,164.3245,101.5949,258.5503,0,U,64876,999,5139,.40762528E-4,.46E-6,0
IONOSFERA-M 4,2025-155B,2026-07-22T06:19:46.944192,14.21494135,.00018985,98.6045,164.2069,92.4131,267.7264,0,U,64877,999,5138,.36226661E-4,.36E-6,0
MICROCARB,2025-156A,2026-07-22T03:21:49.646016,14.72890742,.00181348,98.0070,279.7446,149.3130,210.9142,0,U,64899,999,5311,.75192388E-4,.433E-5,0
CO3D 3,2025-156B,2026-07-22T06:30:29.809440,15.20206152,.00017247,97.4332,281.4602,89.1010,271.0423,0,U,64900,999,5486,.18103663E-3,.3854E-4,0
CO3D 4,2025-156C,2026-07-22T06:30:43.280064,15.20206229,.00020855,97.4332,281.4601,140.1901,219.9488,0,U,64901,999,5486,.1876128E-3,.3997E-4,0
CO3D 2,2025-156D,2026-07-22T05:42:42.015456,15.20204395,.00011881,97.4333,281.3261,91.3463,268.7908,0,U,64902,999,5485,.19384961E-3,.4131E-4,0
CO3D 1,2025-156E,2026-07-22T02:33:20.588256,15.20216667,.00013527,97.4332,281.1965,101.9127,258.2259,0,U,64903,999,5483,.22104052E-3,.4722E-4,0
PRSC-S1,2025-164A,2026-07-22T00:01:19.202880,15.06676582,.00076202,41.1302,91.7034,238.4405,121.5665,0,U,65055,999,5368,.32391536E-3,.472E-4,0
SENTINEL-6B,2025-264A,2026-07-21T23:39:30.739680,12.80930291,.00078363,66.0410,62.9019,268.4954,91.5163,0,U,66514,999,3162,-.10143174E-4,-.63E-6,0
CAS500-3,2025-274F,2026-07-21T18:30:27.980352,14.88394871,.0005731,97.7433,130.0356,19.3838,340.7596,0,U,66655,999,3529,.11365666E-3,.1E-4,0
CSG-3,2026-001A,2026-07-22T02:26:50.847360,14.82166708,.00014721,97.8899,26.2002,93.5993,266.5389,0,U,67304,999,2963,.3741447E-4,.246E-5,0
PRSC-E03,2026-092A,2026-07-22T05:54:01.288800,15.06829494,.00049257,38.0000,242.9207,294.3969,65.6278,0,U,68835,999,1324,.11353913E-3,.1615E-4,0
CAS500-2,2026-100AK,2026-07-22T07:00:52.686144,15.20173235,.00077094,97.3842,100.4676,234.0961,125.9559,0,U,69013,999,1214,.26272093E-3,.5623E-4,0
