IONOSFERA-M 2           
1 61736U 24199B   26203.25024102  .00000018  00000+0  27619-4 0  9994
2 61736  98.7125  75.9550 0000783 130.9117 229.2129 14.22763429135813
PRSC-EO1                
1 62725U 25012A   26203.26790169  .00007364  00000+0  36849-3 0  9997
2 62725  97.4209 275.0386 0007222 126.8070 233.3827 15.17682647 83515
BIOMASS                 
1 63772U 25090A   26203.08190057  .00000607  00000+0  11542-3 0  9992
2 63772  98.0754  29.8887 0001465  88.6377 271.4995 14.67536612 65804
GOSAT-GW (IBUKI GW)     
1 64694U 25141A   26203.30359946  .00000023  00000+0  12439-4 0  9991
2 64694  98.0565 140.0501 0001477  83.1298 277.0074 14.67557222 56992
IONOSFERA-M 3           
1 64876U 25155A   26203.29934529  .00000046  00000+0  40763-4 0  9998
2 64876  98.6046 164.3245 0002445 101.5949 258.5503 14.21491785 51393
IONOSFERA-M 4           
1 64877U 25155B   26203.26373778  .00000036  00000+0  36227-4 0  9998
2 64877  98.6045 164.2069 0001898  92.4131 267.7264 14.21494135 51385
MICROCARB               
1 64899U 25156A   26203.14015794  .00000433  00000+0  75192-4 0  9996
2 64899  98.0070 279.7446 0018134 149.3130 210.9142 14.72890742 53112
CO3D 3                  
1 64900U 25156B   26203.27117835  .00003854  00000+0  18104-3 0  9991
2 64900  97.4332 281.4602 0001724  89.1010 271.0423 15.20206152 54861
CO3D 4                  
1 64901U 25156C   26203.27133426  .00003997  00000+0  18761-3 0  9993
2 64901  97.4332 281.4601 0002085 140.1901 219.9488 15.20206229 54866
CO3D 2                  
1 64902U 25156D   26203.23798629  .00004131  00000+0  19385-3 0  9996
2 64902  97.4333 281.3261 0001188  91.3463 268.7908 15.20204395 54852
CO3D 1                  
1 64903U 25156E   26203.10648829  .00004722  00000+0  22104-3 0  9998
2 64903  97.4332 281.1965 0001352 101.9127 258.2259 15.20216667 54835
PRSC-S1                 
1 65055U 25164A   26203.00091670  .00004720  00000+0  32392-3 0  9999
2 65055  41.1302  91.7034 0007620 238.4405 121.5665 15.06676582 53683
SENTINEL-6B             
1 66514U 25264A   26202.98577245 -.00000063  00000+0 -10143-4 0  9993
2 66514  66.0410  62.9019 0007836 268.4954  91.5163 12.80930291 31622
CAS500-3                
1 66655U 25274F   26202.77115718  .00001000  00000+0  11366-3 0  9997
2 66655  97.7433 130.0356 0005731  19.3838 340.7596 14.88394871 35295
CSG-3                   
1 67304U 26001A   26203.10197740  .00000246  00000+0  37414-4 0  9995
2 67304  97.8899  26.2002 0001472  93.5993 266.5389 14.82166708 29638
PRSC-E03                
1 68835U 26092A   26203.24584825  .00001615  00000+0  11354-3 0  9999
2 68835  38.0000 242.9207 0004925 294.3969  65.6278 15.06829494 13243
CAS500-2                
1 69013U 26100AK  26203.29227646  .00005623  00000+0  26272-3 0  9996
2 69013  97.3842 100.4676 0007709 234.0961 125.9559 15.20173235 12149
